[Satellite]
VERSION=1.1
NAME=SAFIR 2
NICKNAME=SAFIR 2
TLE1=1 25399U 98043F   11059.77587053 -.00000020  00000-0  89782-5 0  8609
TLE2=2 25399  98.3050  65.8753 0002173 141.0263 219.1068 14.23986735656810
